MOLNIYA 2-9             
1 07276U 74026A   22261.83396626  .00000088  00000+0  00000+0 0  9991
2 07276  64.2801 214.1742 6443802 280.1612  17.5586  2.45097657251503
MOLNIYA 2-10            
1 07376U 74056A   22262.37170865 -.00000650  00000+0  00000+0 0  9996
2 07376  64.2326  85.0400 6744819 285.9749  13.6622  2.01078274352245
MOLNIYA 1-S             
1 07392U 74060A   22263.15426530  .00000041  00000+0  00000+0 0  9992
2 07392   4.8832 281.5185 0011745 213.7638 340.6152  1.00205600120464
MOLNIYA 1-29            
1 07780U 75036A   22262.38697953 -.00000078  00000+0 -94232-1 0  9994
2 07780  63.4155 204.8100 6870494 288.4853  12.1604  2.00621068347507
MOLNIYA 2-14            
1 08195U 75081A   22262.20030281 -.00000985  00000+0  00000+0 0  9995
2 08195  63.3840 177.9529 6779223 292.6903  11.6691  2.02080473344793
MOLNIYA 1-32            
1 08601U 76006A   22259.00509718 -.00001432  00000+0  14084-3 0  9994
2 08601  63.4813 285.0499 7227597 283.8775  11.1799  2.00013240 54478
MOLNIYA 1-36            
1 09880U 77021A   22262.50585483 -.00000588  00000+0  00000+0 0  9994
2 09880  63.5069 256.2347 7148168 289.6580  10.2579  2.00896987231254
MOLNIYA 3-8             
1 10455U 77105A   22262.23175911 -.00000904  00000+0  82351-3 0  9993
2 10455  63.4127 343.6128 7363552 282.3145  10.8873  2.00809383329029
MOLNIYA 1-40            
1 10925U 78055A   22262.42893465  .00000155  00000+0  00000+0 0  9996
2 10925  63.4204  34.7665 7266527 280.6857  11.8520  2.00734338324567
MOLNIYA 3-10            
1 11057U 78095A   22262.52514472 -.00000325  00000+0 -94296-3 0  9991
2 11057  63.1965   4.6188 5789044 311.0248  11.7516  4.09856115387580
MOLNIYA 3-13            
1 11896U 80063A   22261.67318749  .00000153  00000+0  00000+0 0  9997
2 11896  62.7160 125.5098 7114339 276.4034  13.9951  2.00664041308960
MOLNIYA 1-49            
1 12156U 81009A   22260.07497439  .00000241  00000+0  18946-2 0  9994
2 12156  61.6936 151.5531 7283496 263.6410  16.9481  2.05697216223408
MOLNIYA 1-52            
1 13012U 81123A   22263.05667606  .00000227  00000+0 -82144-2 0  9995
2 13012  61.6871 265.1169 7230324 256.0770  20.6402  2.00375232298542
MOLNIYA 1-53            
1 13070U 82015A   22262.28281243 -.00001254  00000+0 -26124-1 0  9990
2 13070  62.6112 202.6612 7018468 282.8933  12.7493  2.00692916297143
MOLNIYA 3-20            
1 13875U 83015A   22260.33157720  .00001558  00000+0  22255-2 0  9997
2 13875  62.6913 338.2310 7400602 258.9095  17.7570  2.00565719225551
MOLNIYA 1-56            
1 13890U 83019A   22261.21579325 -.00001550  00000+0  18396-3 0  9990
2 13890  62.9462   3.2066 7452396 264.8660  15.1115  1.99901907288453
MOLNIYA 1-63            
1 15429U 84124A   22259.54409160  .00000574  00000+0  00000+0 0  9993
2 15429  63.7585 159.0695 6656179 259.0745 193.6753  2.00850981276635
MOLNIYA 3-24            
1 15738U 85040A   22261.65603226 -.00000034  00000+0  00000+0 0  9990
2 15738  63.6567  65.3773 6828900 247.2461  30.5764  2.55627754306253
MOLNIYA 3-27            
1 16393U 85117A   22262.86073258 -.00000010  00000+0  00000+0 0  9997
2 16393  64.3781  69.1695 7007815 247.8667  27.9604  2.12397292276209
MOLNIYA 1-69            
1 17078U 86089A   22259.07452492  .00000195  00000+0  00000+0 0  9990
2 17078  63.9874 177.9871 6659265 257.4815  25.9242  2.00676208262660
MOLNIYA 3-31            
1 17328U 87008A   22262.66776263  .00000364  00000+0  00000+0 0  9992
2 17328  63.6941 117.4550 7068955 253.6303  23.6970  2.00637745257787
MOLNIYA 1-71            
1 18946U 88017A   22261.61309075 -.00000339  00000+0  00000+0 0  9990
2 18946  63.3972 111.2783 7181155 256.3674  21.0837  2.00627292252925
MOLNIYA 1-75            
1 19807U 89014A   22260.34162288  .00000010  00000+0  00000+0 0  9992
2 19807  64.0356 274.5335 6836263 266.6273  19.6370  2.00582021245845
MOLNIYA 1-80            
1 21118U 91012A   22262.66487682 -.00000933  00000+0  00000+0 0  9991
2 21118  65.1947 322.6899 6777473 276.4282  16.5102  2.05248762232927
MOLNIYA 3-40            
1 21196U 91022A   22259.95863641  .00000566  00000+0  00000+0 0  9990
2 21196  65.1016 316.6094 6807474 273.2728  17.3574  2.02992995231545
MOLNIYA 1-81            
1 21426U 91043A   22262.24149548  .00000000  00000+0  00000+0 0  9991
2 21426  64.0856 332.1666 7092193 266.4930  17.5619  2.00636454229040
MOLNIYA 3-41            
1 21706U 91065A   22261.86866039  .00000676  00000+0  00000+0 0  9993
2 21706  64.0942 155.8583 6863682 255.0327  25.1367  2.04352567228775
MOLNIYA 3-42            
1 22178U 92067A   22261.34024458  .00000152  00000+0  00000+0 0  9993
2 22178  64.6733 206.1764 6423382 265.5688  23.9542  2.20435660 82109
MOLNIYA 1-86            
1 22671U 93035A   22263.25118230  .00000340  00000+0  54872-3 0  9990
2 22671  63.0760 181.8098 4862570   8.5412 357.4194  5.62713898357589
MOLNIYA 1-87            
1 22949U 93079A   22262.70374353  .00001181  00000+0  00000+0 0  9999
2 22949  64.0413  81.4518 6887870 283.8339  13.3630  2.02857304 76845
MOLNIYA 1-88            
1 23420U 94081A   22262.36682738  .00000064  00000+0  00000+0 0  9998
2 23420  64.2765 175.0112 5798526 281.3298  22.0410  3.34496527116847
MOLNIYA 3-47            
1 23642U 95042A   22260.86551836 -.00001185  00000+0  00000+0 0  9995
2 23642  64.1597  63.3671 6936340 284.0892  12.9958  2.01945645198885
MOLNIYA 1-90            
1 24960U 97054A   22262.54292863  .00000078  00000+0 -82387-3 0  9995
2 24960  63.6507 141.3638 6107033 298.0637  13.9453  3.18687393211008
MOLNIYA 1-91            
1 25485U 98054A   22263.57304985  .00000160  00000+0  22925-2 0  9994
2 25485  63.0511 135.4199 6772270 291.8886  12.6009  2.36442334180623
MOLNIYA 3-50            
1 25847U 99036A   22262.21572714  .00000152  00000+0 -89851-3 0  9998
2 25847  63.2368 319.9819 7367639 282.2192  10.8382  2.00668648169999
